start=new Date('2023-03-30T00:00:00.000Z').valueOf();
sats=[{"CLASSIFICATION_TYPE":"U","TIME_SYSTEM":"UTC","EPOCH":"2023-03-29T16:25:27.790752","NORAD_CAT_ID":"46131","BSTAR":"-0.00091204000000","TLE_LINE2":"2 46131  53.0546  86.9944 0001508 192.4630 167.6322 15.06400868145420","GP_ID":"229134530","MEAN_MOTION_DOT":"-0.00013841","PERIAPSIS":"546.167","INCLINATION":"53.0546","EPHEMERIS_TYPE":"0","MEAN_MOTION":"15.06400868","SITE":"AFETR","TLE_LINE1":"1 46131U 20057Q   23088.68434943 -.00013841  00000-0 -91204-3 0  9999","PERIOD":"95.592","OBJECT_NAME":"STARLINK-1625","REV_AT_EPOCH":"14542","SEMIMAJOR_AXIS":"6925.346","ARG_OF_PERICENTER":"192.4630","REF_FRAME":"TEME","ELEMENT_SET_NO":"999","OBJECT_TYPE":"PAYLOAD","LAUNCH_DATE":"2020-08-18","APOAPSIS":"548.255","MEAN_MOTION_DDOT":"0.0000000000000","ECCENTRICITY":"0.00015080","RCS_SIZE":"LARGE","FILE":"3874790","RA_OF_ASC_NODE":"86.9944","OBJECT_ID":"2020-057Q","MEAN_ELEMENT_THEORY":"SGP4","CENTER_NAME":"EARTH","MEAN_ANOMALY":"167.6322","COUNTRY_CODE":"US","DECAY_DATE":null},{"CENTER_NAME":"EARTH","MEAN_ANOMALY":"252.7896","COUNTRY_CODE":"US","DECAY_DATE":null,"ECCENTRICITY":"0.00016540","FILE":"3874492","RCS_SIZE":"LARGE","RA_OF_ASC_NODE":"107.7103","MEAN_ELEMENT_THEORY":"SGP4","OBJECT_ID":"2020-057R","OBJECT_TYPE":"PAYLOAD","ELEMENT_SET_NO":"999","LAUNCH_DATE":"2020-08-18","APOAPSIS":"548.094","MEAN_MOTION_DDOT":"0.0000000000000","REV_AT_EPOCH":"14512","OBJECT_NAME":"STARLINK-1630","SEMIMAJOR_AXIS":"6925.084","REF_FRAME":"TEME","ARG_OF_PERICENTER":"107.3274","TLE_LINE1":"1 46132U 20057R   23088.52401916  .00029820  00000-0  20077-2 0  9998","PERIOD":"95.587","INCLINATION":"53.0525","PERIAPSIS":"545.803","MEAN_MOTION":"15.06486435","EPHEMERIS_TYPE":"0","SITE":"AFETR","EPOCH":"2023-03-29T12:34:35.255424","TIME_SYSTEM":"UTC","NORAD_CAT_ID":"46132","MEAN_MOTION_DOT":"0.00029820","TLE_LINE2":"2 46132  53.0525 107.7103 0001654 107.3274 252.7896 15.06486435145121","GP_ID":"229102504","BSTAR":"0.00200770000000","CLASSIFICATION_TYPE":"U"},{"TLE_LINE1":"1 46133U 20057S   23088.65672680 -.00004162  00000-0 -26060-3 0  9994","PERIOD":"95.592","INCLINATION":"53.0531","PERIAPSIS":"545.881","MEAN_MOTION":"15.06405865","EPHEMERIS_TYPE":"0","SITE":"AFETR","EPOCH":"2023-03-29T15:45:41.195520","TIME_SYSTEM":"UTC","NORAD_CAT_ID":"46133","TLE_LINE2":"2 46133  53.0531  67.1144 0001898  90.2228 269.8978 15.06405865145692","BSTAR":"-0.00026060000000","GP_ID":"229136029","MEAN_MOTION_DOT":"-0.00004162","CLASSIFICATION_TYPE":"U","CENTER_NAME":"EARTH","MEAN_ANOMALY":"269.8978","COUNTRY_CODE":"US","DECAY_DATE":null,"ECCENTRICITY":"0.00018980","FILE":"3874790","RCS_SIZE":"LARGE","OBJECT_ID":"2020-057S","RA_OF_ASC_NODE":"67.1144","MEAN_ELEMENT_THEORY":"SGP4","OBJECT_TYPE":"PAYLOAD","ELEMENT_SET_NO":"999","LAUNCH_DATE":"2020-08-18","APOAPSIS":"548.510","MEAN_MOTION_DDOT":"0.0000000000000","REV_AT_EPOCH":"14569","OBJECT_NAME":"STARLINK-1637","SEMIMAJOR_AXIS":"6925.331","ARG_OF_PERICENTER":"90.2228","REF_FRAME":"TEME"},{"FILE":"3874790","RCS_SIZE":"LARGE","OBJECT_ID":"2020-057T","RA_OF_ASC_NODE":"67.0928","MEAN_ELEMENT_THEORY":"SGP4","ECCENTRICITY":"0.00005570","COUNTRY_CODE":"US","DECAY_DATE":null,"CENTER_NAME":"EARTH","MEAN_ANOMALY":"238.3796","SEMIMAJOR_AXIS":"6925.374","ARG_OF_PERICENTER":"121.7247","REF_FRAME":"TEME","REV_AT_EPOCH":"14444","OBJECT_NAME":"STARLINK-1638","MEAN_MOTION_DDOT":"0.0000000000000","OBJECT_TYPE":"PAYLOAD","ELEMENT_SET_NO":"999","APOAPSIS":"547.625","LAUNCH_DATE":"2020-08-18","SITE":"AFETR","INCLINATION":"53.0537","PERIAPSIS":"546.853","MEAN_MOTION":"15.06391756","EPHEMERIS_TYPE":"0","PERIOD":"95.593","TLE_LINE1":"1 46134U 20057T   23088.65945371 -.00007285  00000-0 -47083-3 0  9992","CLASSIFICATION_TYPE":"U","NORAD_CAT_ID":"46134","BSTAR":"-0.00047083000000","TLE_LINE2":"2 46134  53.0537  67.0928 0000557 121.7247 238.3796 15.06391756144444","GP_ID":"229135775","MEAN_MOTION_DOT":"-0.00007285","EPOCH":"2023-03-29T15:49:36.800544","TIME_SYSTEM":"UTC"},{"TLE_LINE1":"1 46135U 20057U   23088.67515365  .00000017  00000-0  20052-4 0  9993","PERIOD":"95.592","INCLINATION":"53.0526","PERIAPSIS":"545.428","MEAN_MOTION":"15.06398883","EPHEMERIS_TYPE":"0","SITE":"AFETR","EPOCH":"2023-03-29T16:12:13.275360","TIME_SYSTEM":"UTC","NORAD_CAT_ID":"46135","GP_ID":"229135030","TLE_LINE2":"2 46135  53.0526  67.0346 0002583  68.6136 291.5128 15.06398883144442","MEAN_MOTION_DOT":"0.00000017","BSTAR":"0.00002005200000","CLASSIFICATION_TYPE":"U","CENTER_NAME":"EARTH","MEAN_ANOMALY":"291.5128","COUNTRY_CODE":"US","DECAY_DATE":null,"ECCENTRICITY":"0.00025830","FILE":"3874790","RCS_SIZE":"LARGE","OBJECT_ID":"2020-057U","RA_OF_ASC_NODE":"67.0346","MEAN_ELEMENT_THEORY":"SGP4","OBJECT_TYPE":"PAYLOAD","ELEMENT_SET_NO":"999","APOAPSIS":"549.006","LAUNCH_DATE":"2020-08-18","MEAN_MOTION_DDOT":"0.0000000000000","OBJECT_NAME":"STARLINK-1639","REV_AT_EPOCH":"14444","SEMIMAJOR_AXIS":"6925.352","ARG_OF_PERICENTER":"68.6136","REF_FRAME":"TEME"},{"OBJECT_NAME":"STARLINK-1643","REV_AT_EPOCH":"14403","SEMIMAJOR_AXIS":"6925.368","REF_FRAME":"TEME","ARG_OF_PERICENTER":"121.8428","OBJECT_TYPE":"PAYLOAD","ELEMENT_SET_NO":"999","LAUNCH_DATE":"2020-08-18","APOAPSIS":"548.049","MEAN_MOTION_DDOT":"0.0000000000000","ECCENTRICITY":"0.00011790","FILE":"3874790","RCS_SIZE":"LARGE","RA_OF_ASC_NODE":"96.8079","OBJECT_ID":"2020-057V","MEAN_ELEMENT_THEORY":"SGP4","CENTER_NAME":"EARTH","MEAN_ANOMALY":"238.2676","COUNTRY_CODE":"US","DECAY_DATE":null,"CLASSIFICATION_TYPE":"U","EPOCH":"2023-03-29T17:21:10.217952","TIME_SYSTEM":"UTC","NORAD_CAT_ID":"46136","TLE_LINE2":"2 46136  53.0561  96.8079 0001179 121.8428 238.2676 15.06393769144030","GP_ID":"229134780","MEAN_MOTION_DOT":"0.00002226","BSTAR":"0.00016830000000","INCLINATION":"53.0561","PERIAPSIS":"546.416","MEAN_MOTION":"15.06393769","EPHEMERIS_TYPE":"0","SITE":"AFETR","TLE_LINE1":"1 46136U 20057V   23088.72303493  .00002226  00000-0  16830-3 0  9999","PERIOD":"95.593"},{"COUNTRY_CODE":"US","DECAY_DATE":null,"CENTER_NAME":"EARTH","MEAN_ANOMALY":"271.8823","FILE":"3874492","RCS_SIZE":"LARGE","OBJECT_ID":"2020-057W","RA_OF_ASC_NODE":"88.8114","MEAN_ELEMENT_THEORY":"SGP4","ECCENTRICITY":"0.00014150","MEAN_MOTION_DDOT":"0.0000000000000","OBJECT_TYPE":"PAYLOAD","ELEMENT_SET_NO":"999","LAUNCH_DATE":"2020-08-18","APOAPSIS":"548.075","SEMIMAJOR_AXIS":"6925.230","REF_FRAME":"TEME","ARG_OF_PERICENTER":"88.2328","REV_AT_EPOCH":"14410","OBJECT_NAME":"STARLINK-1586","PERIOD":"95.590","TLE_LINE1":"1 46137U 20057W   23088.27890792  .00021955  00000-0  14867-2 0  9990","SITE":"AFETR","INCLINATION":"53.0537","PERIAPSIS":"546.115","MEAN_MOTION":"15.06438677","EPHEMERIS_TYPE":"0","NORAD_CAT_ID":"46137","GP_ID":"229102754","TLE_LINE2":"2 46137  53.0537  88.8114 0001415  88.2328 271.8823 15.06438677144106","MEAN_MOTION_DOT":"0.00021955","BSTAR":"0.00148670000000","EPOCH":"2023-03-29T06:41:37.644288","TIME_SYSTEM":"UTC","CLASSIFICATION_TYPE":"U"},{"REV_AT_EPOCH":"14383","OBJECT_NAME":"STARLINK-1590","REF_FRAME":"TEME","ARG_OF_PERICENTER":"94.2505","SEMIMAJOR_AXIS":"6925.239","LAUNCH_DATE":"2020-08-18","APOAPSIS":"548.111","ELEMENT_SET_NO":"999","OBJECT_TYPE":"PAYLOAD","MEAN_MOTION_DDOT":"0.0000000000000","ECCENTRICITY":"0.00014550","OBJECT_ID":"2020-057X","RA_OF_ASC_NODE":"108.5206","MEAN_ELEMENT_THEORY":"SGP4","RCS_SIZE":"LARGE","FILE":"3874492","MEAN_ANOMALY":"265.8650","CENTER_NAME":"EARTH","DECAY_DATE":null,"COUNTRY_CODE":"US","CLASSIFICATION_TYPE":"U","TIME_SYSTEM":"UTC","EPOCH":"2023-03-29T08:14:30.465024","GP_ID":"229101504","TLE_LINE2":"2 46138  53.0531 108.5206 0001455  94.2505 265.8650 15.06435850143831","BSTAR":"0.00124480000000","MEAN_MOTION_DOT":"0.00018326","NORAD_CAT_ID":"46138","EPHEMERIS_TYPE":"0","MEAN_MOTION":"15.06435850","PERIAPSIS":"546.096","INCLINATION":"53.0531","SITE":"AFETR","TLE_LINE1":"1 46138U 20057X   23088.34340816  .00018326  00000-0  12448-2 0  9997","PERIOD":"95.590"},{"CLASSIFICATION_TYPE":"U","EPOCH":"2023-03-29T07:16:07.992192","TIME_SYSTEM":"UTC","TLE_LINE2":"2 46140  53.0564  68.7100 0001338  87.7992 272.3150 15.06432028145055","GP_ID":"229109959","MEAN_MOTION_DOT":"0.00019721","BSTAR":"0.00133800000000","NORAD_CAT_ID":"46140","MEAN_MOTION":"15.06432028","EPHEMERIS_TYPE":"0","INCLINATION":"53.0564","PERIAPSIS":"546.189","SITE":"AFETR","TLE_LINE1":"1 46140U 20057Z   23088.30287028  .00019721  00000-0  13380-2 0  9997","PERIOD":"95.590","REV_AT_EPOCH":"14505","OBJECT_NAME":"STARLINK-1594","ARG_OF_PERICENTER":"87.7992","REF_FRAME":"TEME","SEMIMAJOR_AXIS":"6925.250","LAUNCH_DATE":"2020-08-18","APOAPSIS":"548.042","OBJECT_TYPE":"PAYLOAD","ELEMENT_SET_NO":"999","MEAN_MOTION_DDOT":"0.0000000000000","ECCENTRICITY":"0.00013380","OBJECT_ID":"2020-057Z","RA_OF_ASC_NODE":"68.7100","MEAN_ELEMENT_THEORY":"SGP4","FILE":"3874518","RCS_SIZE":"LARGE","MEAN_ANOMALY":"272.3150","CENTER_NAME":"EARTH","DECAY_DATE":null,"COUNTRY_CODE":"US"},{"FILE":"3874492","RCS_SIZE":"LARGE","RA_OF_ASC_NODE":"68.2067","OBJECT_ID":"2020-057AA","MEAN_ELEMENT_THEORY":"SGP4","ECCENTRICITY":"0.00013280","COUNTRY_CODE":"US","DECAY_DATE":null,"CENTER_NAME":"EARTH","MEAN_ANOMALY":"262.0360","SEMIMAJOR_AXIS":"6925.182","REF_FRAME":"TEME","ARG_OF_PERICENTER":"98.0779","REV_AT_EPOCH":"14440","OBJECT_NAME":"STARLINK-1596","MEAN_MOTION_DDOT":"0.0000000000000","OBJECT_TYPE":"PAYLOAD","ELEMENT_SET_NO":"999","APOAPSIS":"547.967","LAUNCH_DATE":"2020-08-18","SITE":"AFETR","INCLINATION":"53.0557","PERIAPSIS":"546.128","MEAN_MOTION":"15.06454229","EPHEMERIS_TYPE":"0","PERIOD":"95.589","TLE_LINE1":"1 46141U 20057AA  23088.41343865  .00028302  00000-0  19085-2 0  9995","CLASSIFICATION_TYPE":"U","NORAD_CAT_ID":"46141","TLE_LINE2":"2 46141  53.0557  68.2067 0001328  98.0779 262.0360 15.06454229144406","GP_ID":"229093349","MEAN_MOTION_DOT":"0.00028302","BSTAR":"0.00190850000000","EPOCH":"2023-03-29T09:55:21.099360","TIME_SYSTEM":"UTC"}];
